     2.10           G: GLONASS NAV DATA                     RINEX VERSION / TYPE
teqc  2015Jun23                         20220109 01:25:44UTCPGM / RUN BY / DATE
Linux 2.4.21-27.ELsmp|Opteron|gcc -static|Linux x86_64|=+   COMMENT
  2021    12    16    4.656612873077D-10                    CORR TO SYSTEM TIME
                                                            END OF HEADER
13 21 12 17  4 45  0.0-1.569930464029D-05-0.000000000000D+00 1.620000000000D+04
   -1.909547851562D+03 1.552238464355D-01-0.000000000000D+00 0.000000000000D+00
    2.516659130859D+04-5.027580261230D-01 2.793967723846D-09-2.000000000000D+00
    3.661019042969D+03 3.521236419678D+00-2.793967723846D-09 0.000000000000D+00
14 21 12 17  4 45  0.0 7.217098027468D-05 0.000000000000D+00 1.620000000000D+04
    6.557495117188D+03 8.248519897461D-02-9.313225746155D-10 0.000000000000D+00
    2.016754150391D+04 1.942946434021D+00 4.656612873077D-09-7.000000000000D+00
   -1.417350341797D+04 2.799777984619D+00-9.313225746155D-10 0.000000000000D+00
17 21 12 17  4 45  0.0 4.842653870583D-04 2.728484105319D-12 1.620000000000D+04
    1.783788769531D+04-9.532871246338D-01-1.862645149231D-09 0.000000000000D+00
    1.578870654297D+04-8.254661560059D-01 2.793967723846D-09 4.000000000000D+00
   -9.049670410156D+03-3.317049980164D+00-9.313225746155D-10 0.000000000000D+00
24 21 12 17  4 45  0.0 7.154699414968D-05 1.818989403546D-12 1.620000000000D+04
    2.963189453125D+03-2.433154106140D+00-0.000000000000D+00 0.000000000000D+00
    1.368074316406D+04-1.622322082520D+00 4.656612873077D-09 2.000000000000D+00
   -2.129621289062D+04-1.380653381348D+00-0.000000000000D+00 0.000000000000D+00
12 21 12 17  5 15  0.0 2.871649339795D-04 3.637978807092D-12 1.800000000000D+04
   -9.049533691406D+03-2.755088806152D-01 9.313225746155D-10 0.000000000000D+00
    1.060284179688D+04-2.909232139587D+00-9.313225746155D-10-1.000000000000D+00
    2.138030371094D+04 1.329746246338D+00-1.862645149231D-09 0.000000000000D+00
 2 21 12 17  5 15  0.0 5.035214126110D-04 9.094947017729D-13 1.800000000000D+04
   -1.224172558594D+04-1.509614944458D+00 9.313225746155D-10 0.000000000000D+00
    1.717392822266D+04 1.255427360535D+00 9.313225746155D-10-4.000000000000D+00
    1.433327343750D+04-2.806500434875D+00-2.793967723846D-09 0.000000000000D+00
 1 21 12 17  5 15  0.0 8.959975093603D-05 0.000000000000D+00 1.800000000000D+04
   -2.125087109375D+04 6.671676635742D-01 1.862645149231D-09 0.000000000000D+00
    1.306675244141D+04-3.318872451782D-01 1.862645149231D-09 1.000000000000D+00
   -5.348196777344D+03-3.463956832886D+00-9.313225746155D-10 0.000000000000D+00
13 21 12 17  5 15  0.0-1.570116728544D-05-0.000000000000D+00 1.800000000000D+04
   -1.761900878906D+03-2.910804748535D-02 0.000000000000D+00 0.000000000000D+00
    2.348495263672D+04-1.348243713379D+00 2.793967723846D-09-2.000000000000D+00
    9.775611816406D+03 3.228577613831D+00-2.793967723846D-09 0.000000000000D+00
14 21 12 17  5 15  0.0 7.217191159725D-05 0.000000000000D+00 1.800000000000D+04
    6.905160644531D+03 2.676000595093D-01-0.000000000000D+00 0.000000000000D+00
    2.298369140625D+04 1.162193298340D+00 4.656612873077D-09-7.000000000000D+00
   -8.651057128906D+03 3.296407699585D+00-1.862645149231D-09 0.000000000000D+00
17 21 12 17  5 15  0.0 4.842709749937D-04 2.728484105319D-12 1.800000000000D+04
    1.538859521484D+04-1.760857582092D+00-9.313225746155D-10 0.000000000000D+00
    1.412846240234D+04-9.744272232056D-01 3.725290298462D-09 4.000000000000D+00
   -1.459204638672D+04-2.801038742065D+00-0.000000000000D+00 0.000000000000D+00
24 21 12 17  5 15  0.0 7.154978811741D-05 1.818989403546D-12 1.800000000000D+04
   -1.824944335938D+03-2.847554206848D+00 0.000000000000D+00 0.000000000000D+00
    1.098552392578D+04-1.338964462280D+00 3.725290298462D-09 2.000000000000D+00
   -2.292382373047D+04-4.160547256470D-01 0.000000000000D+00 0.000000000000D+00
 3 21 12 17  5 15  0.0 4.829559475183D-05 9.094947017729D-13 1.938000000000D+04
    3.848760253906D+03-2.509263992310D+00-0.000000000000D+00 0.000000000000D+00
    1.065416162109D+04 1.861166000366D+00-0.000000000000D+00 5.000000000000D+00
    2.288705371094D+04-4.506034851074D-01-2.793967723846D-09 0.000000000000D+00
13 21 12 17  5 45  0.0-1.570209860802D-05-0.000000000000D+00 1.980000000000D+04
   -2.135565429688D+03-4.142007827759D-01 9.313225746155D-10 0.000000000000D+00
    2.040742773438D+04-2.037042617798D+00 9.313225746155D-10-2.000000000000D+00
    1.513347753906D+04 2.685873985291D+00-2.793967723846D-09 0.000000000000D+00
 1 21 12 17  5 45  0.0 8.960068225861D-05 0.000000000000D+00 1.980000000000D+04
   -1.955080810547D+04 1.182778358459D+00 1.862645149231D-09 0.000000000000D+00
    1.187998242188D+04-1.002697944641D+00 1.862645149231D-09 1.000000000000D+00
   -1.129615917969D+04-3.102007865906D+00-0.000000000000D+00 0.000000000000D+00
 2 21 12 17  5 45  0.0 5.035232752562D-04 9.094947017729D-13 1.980000000000D+04
   -1.428650683594D+04-7.645902633667D-01 1.862645149231D-09 0.000000000000D+00
    1.918852001953D+04 9.387483596802D-01 9.313225746155D-10-4.000000000000D+00
    8.792000000000D+03-3.310550689697D+00-1.862645149231D-09 0.000000000000D+00
14 21 12 17  5 45  0.0 7.217284291983D-05 0.000000000000D+00 1.980000000000D+04
    7.379624511719D+03 2.187910079956D-01 0.000000000000D+00 0.000000000000D+00
    2.429828320312D+04 2.932672500610D-01 3.725290298462D-09-7.000000000000D+00
   -2.459797363281D+03 3.538100242615D+00-1.862645149231D-09 0.000000000000D+00
17 21 12 17  5 45  0.0 4.842765629292D-04 2.728484105319D-12 1.980000000000D+04
    1.156035400391D+04-2.466277122498D+00 0.000000000000D+00 0.000000000000D+00
    1.243718408203D+04-8.642368316650D-01 4.656612873077D-09 4.000000000000D+00
   -1.900280517578D+04-2.067924499512D+00-0.000000000000D+00 0.000000000000D+00
24 21 12 17  5 45  0.0 7.155165076256D-05 1.818989403546D-12 1.980000000000D+04
   -7.126101562500D+03-2.993481636047D+00 9.313225746155D-10 0.000000000000D+00
    8.954269042969D+03-9.001073837280D-01 2.793967723846D-09 2.000000000000D+00
   -2.277474951172D+04 5.805635452271D-01 0.000000000000D+00 0.000000000000D+00
 3 21 12 17  5 45  0.0 4.829745739698D-05 9.094947017729D-13 1.986000000000D+04
   -2.812783203125D+02-2.048371315002D+00 0.000000000000D+00 0.000000000000D+00
    1.420833203125D+04 2.047661781311D+00-0.000000000000D+00 5.000000000000D+00
    2.120442871094D+04-1.407089233398D+00-2.793967723846D-09 0.000000000000D+00
15 21 12 17  5 45  0.0 9.953603148460D-05-0.000000000000D+00 2.025000000000D+04
    1.215491650391D+04 6.812419891357D-01 0.000000000000D+00 0.000000000000D+00
    1.364826367188D+04 2.342449188232D+00 4.656612873077D-09 0.000000000000D+00
   -1.777501171875D+04 2.262495040894D+00-0.000000000000D+00 0.000000000000D+00
13 21 12 17  6 15  0.0-1.570396125317D-05-0.000000000000D+00 2.160000000000D+04
   -3.328406250000D+03-9.240827560425D-01 9.313225746155D-10 0.000000000000D+00
    1.629737695312D+04-2.484173774719D+00-0.000000000000D+00-2.000000000000D+00
    1.931957519531D+04 1.935077667236D+00-2.793967723846D-09 0.000000000000D+00
 1 21 12 17  6 15  0.0 8.960161358118D-05 0.000000000000D+00 2.160000000000D+04
   -1.714638818359D+04 1.444005012512D+00 1.862645149231D-09 0.000000000000D+00
    9.431754394531D+03-1.715262413025D+00 1.862645149231D-09 1.000000000000D+00
   -1.637127099609D+04-2.500426292419D+00 0.000000000000D+00 0.000000000000D+00
 2 21 12 17  6 15  0.0 5.035251379013D-04 0.000000000000D+00 2.160000000000D+04
   -1.503577783203D+04-8.825302124023D-02 2.793967723846D-09 0.000000000000D+00
    2.040497021484D+04 3.761148452759D-01 9.313225746155D-10-4.000000000000D+00
    2.569325683594D+03-3.558544158936D+00-1.862645149231D-09 0.000000000000D+00
 3 21 12 17  6 15  0.0 4.829932004213D-05 0.000000000000D+00 2.160000000000D+04
   -3.442106933594D+03-1.449333190918D+00 9.313225746155D-10 0.000000000000D+00
    1.786613525391D+04 1.969572067261D+00 0.000000000000D+00 5.000000000000D+00
    1.788604638672D+04-2.256316184998D+00-2.793967723846D-09 0.000000000000D+00
14 21 12 17  6 15  0.0 7.217377424240D-05 0.000000000000D+00 2.160000000000D+04
    7.548490722656D+03-6.904888153076D-02 9.313225746155D-10 0.000000000000D+00
    2.405576074219D+04-5.486907958984D-01 2.793967723846D-09-7.000000000000D+00
    3.921587890625D+03 3.506313323975D+00-2.793967723846D-09 0.000000000000D+00
15 21 12 17  6 15  0.0 9.953603148460D-05-0.000000000000D+00 2.160000000000D+04
    1.349880322266D+04 7.728033065796D-01 9.313225746155D-10 0.000000000000D+00
    1.723817236328D+04 1.622130393982D+00 4.656612873077D-09 0.000000000000D+00
   -1.306704199219D+04 2.934539794922D+00-9.313225746155D-10 0.000000000000D+00
13 21 12 17  6 45  0.0-1.570489257574D-05-0.000000000000D+00 2.340000000000D+04
   -5.476714355469D+03-1.457782745361D+00 0.000000000000D+00 0.000000000000D+00
    1.163847851562D+04-2.642717361450D+00-9.313225746155D-10-2.000000000000D+00
    2.200956152344D+04 1.034349441528D+00-1.862645149231D-09 0.000000000000D+00
 1 21 12 17  6 45  0.0 8.960254490376D-05 0.000000000000D+00 2.340000000000D+04
   -1.451314892578D+04 1.438824653625D+00 1.862645149231D-09 0.000000000000D+00
    5.747252441406D+03-2.357707977295D+00 9.313225746155D-10 1.000000000000D+00
   -2.018151611328D+04-1.705718994141D+00 9.313225746155D-10 0.000000000000D+00
 2 21 12 17  6 45  0.0 5.035260692239D-04 0.000000000000D+00 2.340000000000D+04
   -1.470461523438D+04 4.218273162842D-01 2.793967723846D-09 0.000000000000D+00
    2.043351025391D+04-3.671054840088D-01 9.313225746155D-10-4.000000000000D+00
   -3.852682128906D+03-3.530473709106D+00-9.313225746155D-10 0.000000000000D+00
 3 21 12 17  6 45  0.0 4.830025136471D-05 0.000000000000D+00 2.340000000000D+04
   -5.480816894531D+03-8.202190399170D-01 1.862645149231D-09 0.000000000000D+00
    2.112827587891D+04 1.608850479126D+00 0.000000000000D+00 5.000000000000D+00
    1.318583398438D+04-2.932409286499D+00-2.793967723846D-09 0.000000000000D+00
